ORBCOMM FM115           
1 41186U 15081H   25261.16055493  .00000566  00000+0  14451-3 0  9998
2 41186  46.9992 317.3277 0000728 215.4884 144.5955 14.62654577521389
ORBCOMM FM108           
1 41187U 15081J   25260.32574844  .00000627  00000+0  17076-3 0  9996
2 41187  47.0062  31.7969 0001911   1.8556 358.2336 14.58303805520244
ORBCOMM FM117           
1 41188U 15081K   25260.42902239  .00000602  00000+0  16541-3 0  9990
2 41188  47.0025  30.0409 0002338  18.8672 341.2300 14.58299979520302
ORBCOMM FM116           
1 41189U 15081L   25261.03005000  .00000666  00000+0  17888-3 0  9994
2 41189  47.0015 117.0115 0002005 237.3481 122.7211 14.58383971519205
